NORAD_CAT_ID,OBJECT_NAME,OBJECT_TYPE,EPOCH,MEAN_MOTION,ECCENTRICITY,INCLINATION,RA_OF_ASC_NODE,ARG_OF_PERICENTER,MEAN_ANOMALY,BSTAR,MEAN_MOTION_DOT,MEAN_MOTION_DDOT,TLE_LINE0,TLE_LINE1,TLE_LINE2,SEMIMAJOR_AXIS,PERIOD,APOGEE,PERIGEE,DECAYED
55637.0,STARLINK-5062,PAYLOAD,2024-02-26 19:40:11,14.98329677,0.0002794,69.9984,255.0855,269.2459,90.838,-4.8396e-05,-6.7e-06,0.0,0 STARLINK-5062,1 55637U 23021K   24057.81957824 -.00000670  00000-0 -48396-4 0  9995,2 55637  69.9984 255.0855 0002794 269.2459  90.8380 14.98329677 57367,6950.194,96.107,574.001,570.117,0.0
55637.0,STARLINK-5062,PAYLOAD,2024-02-26 22:52:27,14.98329464,0.0002794,69.9984,254.7488,269.3287,90.7552,-4.8193e-05,-6.68e-06,0.0,0 STARLINK-5062,1 55637U 23021K   24057.95309839 -.00000668  00000-0 -48193-4 0  9999,2 55637  69.9984 254.7488 0002794 269.3287  90.7552 14.98329464 57684,6950.195,96.107,574.001,570.118,0.0
55637.0,STARLINK-5062,PAYLOAD,2024-02-27 14:53:48,14.98329491,0.0002872,69.9981,253.0652,269.759,90.324,4.4822e-05,4.42e-06,0.0,0 STARLINK-5062,1 55637U 23021K   24058.62069574  .00000442  00000-0  44822-4 0  9996,2 55637  69.9981 253.0652 0002872 269.7590  90.3240 14.98329491 57785,6950.194,96.107,574.056,570.063,0.0
55637.0,STARLINK-5062,PAYLOAD,2024-02-27 19:42:12,14.98330935,0.0002913,69.9981,252.5605,270.5403,89.5422,3.6189e-05,3.39e-06,0.0,0 STARLINK-5062,1 55637U 23021K   24058.82097513  .00000339  00000-0  36189-4 0  9994,2 55637  69.9981 252.5605 0002913 270.5403  89.5422 14.98330935 57514,6950.19,96.107,574.08,570.03,0.0
55637.0,STARLINK-5062,PAYLOAD,2024-02-27 21:18:20,14.98331321,0.00029,69.9982,252.3922,270.53,89.5527,4.0386e-05,3.89e-06,0.0,0 STARLINK-5062,1 55637U 23021K   24058.88773473  .00000389  00000-0  40386-4 0  9995,2 55637  69.9982 252.3922 0002900 270.5300  89.5527 14.98331321 57827,6950.189,96.107,574.069,570.038,0.0
55637.0,STARLINK-5062,PAYLOAD,2024-02-28 14:55:48,14.9833263,0.0002875,69.9983,250.5405,271.1396,88.9433,5.4682e-05,5.6e-06,0.0,0 STARLINK-5062,1 55637U 23021K   24059.62209257  .00000560  00000-0  54682-4 0  9997,2 55637  69.9983 250.5405 0002875 271.1396  88.9433 14.98332630 57932,6950.185,96.107,574.048,570.052,0.0
55637.0,STARLINK-5062,PAYLOAD,2024-02-28 19:44:12,14.98332662,0.0002879,69.9984,250.0355,271.2264,88.8565,5.2337e-05,5.32e-06,0.0,0 STARLINK-5062,1 55637U 23021K   24059.82237221  .00000532  00000-0  52337-4 0  9995,2 55637  69.9984 250.0355 0002879 271.2264  88.8565 14.98332662 57661,6950.185,96.107,574.051,570.049,0.0
55637.0,STARLINK-5062,PAYLOAD,2024-02-28 21:20:20,14.98333183,0.0002874,69.9984,249.8672,271.2906,88.7924,5.7119e-05,5.89e-06,0.0,0 STARLINK-5062,1 55637U 23021K   24059.88913160  .00000589  00000-0  57119-4 0  9999,2 55637  69.9984 249.8672 0002874 271.2906  88.7924 14.98333183 57978,6950.183,96.107,574.046,570.051,0.0
55637.0,STARLINK-5062,PAYLOAD,2024-02-29 11:45:34,14.98328104,0.000277,69.9988,248.3522,271.9949,88.0893,-5.3096e-05,-7.26e-06,0.0,0 STARLINK-5062,1 55637U 23021K   24060.48997739 -.00000726  00000-0 -53096-4 0  9996,2 55637  69.9988 248.3522 0002770 271.9949  88.0893 14.98328104 57761,6950.199,96.107,573.989,570.139,0.0
55637.0,STARLINK-5062,PAYLOAD,2024-02-29 14:57:50,14.98327381,0.0002792,69.9987,248.0157,271.6835,88.4005,-6.4144e-05,-8.58e-06,0.0,0 STARLINK-5062,1 55637U 23021K   24060.62349812 -.00000858  00000-0 -64144-4 0  9997,2 55637  69.9987 248.0157 0002792 271.6835  88.4005 14.98327381 58087,6950.201,96.107,574.006,570.125,0.0
55637.0,STARLINK-5062,PAYLOAD,2024-02-29 21:22:22,14.98326468,0.0002781,69.999,247.3429,269.9747,90.1093,-5.9952e-05,-8.08e-06,0.0,0 STARLINK-5062,1 55637U 23021K   24060.89053879 -.00000808  00000-0 -59952-4 0  9997,2 55637  69.9990 247.3429 0002781 269.9747  90.1093 14.98326468 58122,6950.204,96.107,574.002,570.136,0.0
55637.0,STARLINK-5062,PAYLOAD,2024-03-01 14:59:51,14.98329667,0.0002866,69.9988,245.4909,267.3652,92.7179,-4.5081e-05,-6.31e-06,0.0,0 STARLINK-5062,1 55637U 23021K   24061.62489610 -.00000631  00000-0 -45081-4 0  9997,2 55637  69.9988 245.4909 0002866 267.3652  92.7179 14.98329667 58231,6950.194,96.107,574.051,570.067,0.0
55637.0,STARLINK-5062,PAYLOAD,2024-03-01 19:48:12,14.98359263,0.0002688,69.9992,244.986,265.4463,94.6389,0.00027532,3.196e-05,0.0,0 STARLINK-5062,1 55637U 23021K   24061.82514744  .00003196  00000-0  27532-3 0  9993,2 55637  69.9992 244.9860 0002688 265.4463  94.6389 14.98359263 57965,6950.102,96.105,573.836,570.099,0.0
55637.0,STARLINK-5062,PAYLOAD,2024-03-01 21:24:20,14.98360265,0.000273,69.9991,244.8177,265.3575,94.7273,0.00028097,3.264e-05,0.0,0 STARLINK-5062,1 55637U 23021K   24061.89190547  .00003264  00000-0  28097-3 0  9994,2 55637  69.9991 244.8177 0002730 265.3575  94.7273 14.98360265 58277,6950.099,96.105,573.862,570.067,0.0
55637.0,STARLINK-5062,PAYLOAD,2024-03-02 15:01:50,14.98332211,0.0002897,69.9992,242.9661,263.0662,97.0167,7.0685e-05,7.51e-06,0.0,0 STARLINK-5062,1 55637U 23021K   24062.62628391  .00000751  00000-0  70685-4 0  9998,2 55637  69.9992 242.9661 0002897 263.0662  97.0167 14.98332211 58381,6950.186,96.107,574.065,570.038,0.0
55637.0,STARLINK-5062,PAYLOAD,2024-03-02 19:50:15,14.98326713,0.0003109,69.9986,242.4603,269.2746,90.8057,-1.3865e-05,-2.58e-06,0.0,0 STARLINK-5062,1 55637U 23021K   24062.82656990 -.00000258  00000-0 -13865-4 0  9997,2 55637  69.9986 242.4603 0003109 269.2746  90.8057 14.98326713 58113,6950.203,96.107,574.229,569.907,0.0
55637.0,STARLINK-5062,PAYLOAD,2024-03-02 21:26:23,14.98326388,0.0003146,69.9985,242.2918,269.2959,90.7839,-2.1932e-05,-3.55e-06,0.0,0 STARLINK-5062,1 55637U 23021K   24062.89333031 -.00000355  00000-0 -21932-4 0  9994,2 55637  69.9985 242.2918 0003146 269.2959  90.7839 14.98326388 58425,6950.204,96.107,574.256,569.883,0.0
55637.0,STARLINK-5062,PAYLOAD,2024-03-03 15:03:52,14.98324967,0.0002777,69.9986,240.4401,261.5553,98.5292,-5.6037e-05,-7.61e-06,0.0,0 STARLINK-5062,1 55637U 23021K   24063.62769333 -.00000761  00000-0 -56037-4 0  9999,2 55637  69.9986 240.4401 0002777 261.5553  98.5292 14.98324967 58539,6950.208,96.107,574.004,570.143,0.0
55637.0,STARLINK-5062,PAYLOAD,2024-03-03 21:28:23,14.98339924,0.0002469,69.9995,239.7679,268.4651,91.6225,0.00012427,1.39e-05,0.0,0 STARLINK-5062,1 55637U 23021K   24063.89472050  .00001390  00000-0  12427-3 0  9996,2 55637  69.9995 239.7679 0002469 268.4651  91.6225 14.98339924 58573,6950.162,96.106,573.743,570.311,0.0
55637.0,STARLINK-5062,PAYLOAD,2024-03-04 13:29:44,14.98332055,0.0002675,69.9986,238.0836,270.6442,89.441,0.00011897,1.327e-05,0.0,0 STARLINK-5062,1 55637U 23021K   24064.56231907  .00001327  00000-0  11897-3 0  9995,2 55637  69.9986 238.0836 0002675 270.6442  89.4410 14.98332055 58672,6950.187,96.107,573.911,570.192,0.0
55637.0,STARLINK-5062,PAYLOAD,2024-03-04 19:54:17,14.98323512,0.0002864,69.9997,237.4108,267.3065,92.7766,7.29e-05,7.77e-06,0.0,0 STARLINK-5062,1 55637U 23021K   24064.82936554  .00000777  00000-0  72900-4 0  9995,2 55637  69.9997 237.4108 0002864 267.3065  92.7766 14.98323512 58414,6950.213,96.107,574.068,570.087,0.0
55637.0,STARLINK-5062,PAYLOAD,2024-03-04 21:30:27,14.9830093,0.0002635,69.9994,237.2412,270.4956,89.5901,-0.00022255,-2.745e-05,0.0,0 STARLINK-5062,1 55637U 23021K   24064.89614804 -.00002745  00000-0 -22255-3 0  9999,2 55637  69.9994 237.2412 0002635 270.4956  89.5901 14.98300930 58725,6950.283,96.109,573.979,570.316,0.0
55637.0,STARLINK-5062,PAYLOAD,2024-03-05 13:31:47,14.98311098,0.0002967,69.9989,235.5564,274.6898,85.3922,-0.00016467,-2.056e-05,0.0,0 STARLINK-5062,1 55637U 23021K   24065.56374764 -.00002056  00000-0 -16467-3 0  9995,2 55637  69.9989 235.5564 0002967 274.6898  85.3922 14.98311098 58822,6950.251,96.108,574.178,570.054,0.0
55637.0,STARLINK-5062,PAYLOAD,2024-03-05 21:32:27,14.98316053,0.0003075,69.999,234.7168,272.915,87.1657,-6.3849e-05,-8.54e-06,0.0,0 STARLINK-5062,1 55637U 23021K   24065.89754510 -.00000854  00000-0 -63849-4 0  9993,2 55637  69.9990 234.7168 0003075 272.9150  87.1657 14.98316053 58571,6950.236,96.108,574.238,569.964,0.0
55637.0,STARLINK-5062,PAYLOAD,2024-03-06 13:33:48,14.98319904,0.0003161,69.9992,233.0338,272.1317,87.948,-2.1338e-05,-3.48e-06,0.0,0 STARLINK-5062,1 55637U 23021K   24066.56514495 -.00000348  00000-0 -21338-4 0  9999,2 55637  69.9992 233.0338 0003161 272.1317  87.9480 14.98319904 58971,6950.224,96.108,574.286,569.892,0.0
55637.0,STARLINK-5062,PAYLOAD,2024-03-06 19:58:20,14.98323634,0.0003159,69.9992,232.3608,272.3479,87.7318,1.4937e-05,8.5e-07,0.0,0 STARLINK-5062,1 55637U 23021K   24066.83218338  .00000085  00000-0  14937-4 0  9999,2 55637  69.9992 232.3608 0003159 272.3479  87.7318 14.98323634 58716,6950.213,96.107,574.273,569.882,0.0
55637.0,STARLINK-5062,PAYLOAD,2024-03-07 13:35:49,14.98325945,0.0003129,69.9992,230.5092,270.359,89.721,0.00017104,1.948e-05,0.0,0 STARLINK-5062,1 55637U 23021K   24067.56654233  .00001948  00000-0  17104-3 0  9995,2 55637  69.9992 230.5092 0003129 270.3590  89.7210 14.98325945 59128,6950.205,96.107,574.245,569.896,0.0
55637.0,STARLINK-5062,PAYLOAD,2024-03-08 04:01:01,14.98334815,0.0003111,69.9993,228.9944,270.5236,89.5566,0.00018952,2.169e-05,0.0,0 STARLINK-5062,1 55637U 23021K   24068.16737610  .00002169  00000-0  18952-3 0  9991,2 55637  69.9993 228.9944 0003111 270.5236  89.5566 14.98334815 58910,6950.178,96.107,574.205,569.881,0.0
55637.0,STARLINK-5062,PAYLOAD,2024-03-08 12:01:41,14.98338596,0.0003074,69.9994,228.1528,270.3066,89.7741,0.00016597,1.888e-05,0.0,0 STARLINK-5062,1 55637U 23021K   24068.50117299  .00001888  00000-0  16597-3 0  9994,2 55637  69.9994 228.1528 0003074 270.3066  89.7741 14.98338596 59264,6950.166,96.106,574.168,569.895,0.0
55637.0,STARLINK-5062,PAYLOAD,2024-03-08 16:50:05,14.98342482,0.0003101,69.9994,227.6477,270.0942,89.9862,0.00015975,1.814e-05,0.0,0 STARLINK-5062,1 55637U 23021K   24068.70144928  .00001814  00000-0  15975-3 0  9993,2 55637  69.9994 227.6477 0003101 270.0942  89.9862 14.98342482 59290,6950.154,96.106,574.175,569.864,0.0
